{"spkid": "50774636", "covariance": {"labels": ["e", "q", "tp", "node", "peri", "i"], "data": [["3.211782772860409E-15", "-2.410414893114373E-15", "1.824840723673641E-13", "-1.160421736386918E-13", "4.461233709265016E-13", "2.085394270134535E-13"], ["-2.410414893114373E-15", "4.39163823870085E-15", "-3.902556443455984E-13", "2.40584299149867E-13", "-8.802595113322293E-13", "-3.535711823320181E-13"], ["1.824840723673641E-13", "-3.902556443455984E-13", "6.763147751010587E-11", "-2.04443953930393E-11", "1.067436613188479E-10", "2.307604624823219E-11"], ["-1.160421736386918E-13", "2.40584299149867E-13", "-2.04443953930393E-11", "1.310138824479527E-10", "-1.402846915606826E-10", "-6.980046856815702E-12"], ["4.461233709265016E-13", "-8.802595113322293E-13", "1.067436613188479E-10", "-1.402846915606826E-10", "2.831237321097838E-10", "4.224321586999469E-11"], ["2.085394270134535E-13", "-3.535711823320181E-13", "2.307604624823219E-11", "-6.980046856815702E-12", "4.224321586999469E-11", "1.229805786953416E-10"]], "elements": [{"title": "eccentricity", "value": ".6191732508606", "units": null, "sigma": 5.6672592783994e-08, "name": "e", "label": "e"}, {"label": "q", "name": "q", "sigma": 6.62694366861591e-08, "units": "au", "title": "perihelion distance", "value": ".9005136199172586"}, {"label": "tp", "value": "2457928.059284995523", "title": "time of perihelion passage", "units": "TDB", "name": "tp", "sigma": 8.22383593647793e-06}, {"label": "node", "sigma": 1.14461295837481e-05, "name": "om", "units": "deg", "value": "229.8389099794468", "title": "longitude of the ascending node"}, {"units": "deg", "title": "argument of perihelion", "value": "51.225133181084", "name": "w", "sigma": 1.68262809946162e-05, "label": "peri"}, {"label": "i", "sigma": 1.10896608918101e-05, "name": "i", "units": "deg", "title": "inclination", "value": "14.0428172964248"}], "epoch": "2457942.5"}, "elements": [{"name": "e", "sigma": "5.9125E-8", "units": null, "title": "eccentricity", "value": ".6177866298098789", "label": "e"}, {"name": "a", "sigma": "2.614E-7", "title": "semi-major axis", "value": "2.36770246316663", "units": "au", "label": "a"}, {"title": "perihelion distance", "value": ".9049675380543689", "units": "au", "sigma": "6.8946E-8", "name": "q", "label": "q"}, {"units": "deg", "value": "13.99635284828334", "title": "inclination; angle with respect to x-y ecliptic plane", "name": "i", "sigma": "1.1073E-5", "label": "i"}, {"units": "deg", "title": "longitude of the ascending node", "value": "229.673477830801", "name": "om", "sigma": "1.1501E-5", "label": "node"}, {"value": "51.49148003737474", "title": "argument of perihelion", "units": "deg", "sigma": "1.6931E-5", "name": "w", "label": "peri"}, {"name": "ma", "sigma": ".00015287", "units": "deg", "title": "mean anomaly", "value": "166.9121848685253", "label": "M"}, {"label": "tp", "sigma": ".00046291", "name": "tp", "units": "TDB", "value": "2460583.514926973331", "title": "time of perihelion passage"}, {"label": "period", "sigma": ".00022038", "name": "per", "units": "d", "title": "sidereal orbital period", "value": "1330.727450872194"}, {"name": "n", "sigma": "4.4801E-8", "title": "mean motion", "value": ".2705287245438925", "units": "deg/d", "label": "n"}, {"label": "Q", "sigma": "4.2289E-7", "name": "ad", "units": "au", "title": "aphelion distance", "value": "3.830437388278892"}], "epoch": "2461200.5"}